IRIDIUM 166             
1 43570U 18061B   24179.56299132  .00000553  00000+0  19032-3 0  9995
2 43570  86.3976 357.4737 0002334  95.8033 264.3429 14.34218750310252
IRIDIUM 158             
1 43571U 18061C   24179.04289203  .00000376  00000+0  12726-3 0  9993
2 43571  86.3976 357.7004 0002291  89.2067 270.9391 14.34219766310157
IRIDIUM 165             
1 43572U 18061D   24178.99849899  .00000019  00000+0 -27950-6 0  9993
2 43572  86.3976 357.7515 0002257  88.7859 271.3595 14.34218032310167
IRIDIUM 155             
1 43573U 18061E   24179.03021311  .00000097  00000+0  27537-4 0  9995
2 43573  86.3971 357.6429 0002242  95.4680 264.6772 14.34218248310146
IRIDIUM 154             
1 43574U 18061F   24179.49956472  .00000026  00000+0  22159-5 0  9999
2 43574  86.3976 357.5450 0001994  86.6565 273.4859 14.34217738310251
IRIDIUM 163             
1 43575U 18061G   24178.99215691  .00000014  00000+0 -19853-5 0  9990
2 43575  86.3973 357.6949 0002116  91.7041 268.4397 14.34217873310156
IRIDIUM 156             
1 43576U 18061H   24179.52493515  .00000051  00000+0  11217-4 0  9999
2 43576  86.3974 357.4785 0002292  90.1540 269.9919 14.34217546310216
IRIDIUM 164             
1 43577U 18061J   24179.50590717  .00000213  00000+0  69010-4 0  9994
2 43577  86.3972 357.5157 0002242  83.8832 276.2619 14.34217535310268
